STARLINK-30767          
1 58126U 23162J   26088.16721556 -.00001640  00000+0 -50054-4 0  9993
2 58126  43.0014  19.2790 0001972 265.2104  94.8523 15.27591142135325
STARLINK-30790          
1 58127U 23162K   26088.14703390  .00068673  00000+0  36006-2 0  9994
2 58127  42.9998  20.0154 0012174 174.8361 185.2613 15.14837473135315
STARLINK-30787          
1 58128U 23162L   26088.10310521  .00002563  00000+0  10263-3 0  9995
2 58128  43.0020  19.6569 0001601 264.7006  95.3663 15.27585119135313
STARLINK-30756          
1 58129U 23162M   26088.16668981  .00058029  00000+0  21035-2 0  9994
2 58129  43.0039  22.4762 0001919 275.6281 169.2038 15.27551265  5812
STARLINK-30783          
1 58130U 23162N   26088.16206582  .00003684  00000+0  14330-3 0  9999
2 58130  43.0024  19.2370 0000953 283.3279  76.7466 15.27589522135321
STARLINK-30757          
1 58131U 23162P   26088.15820830  .00003099  00000+0  12206-3 0  9997
2 58131  43.0066  19.2070 0000996 281.3450  78.7290 15.27588504135327
STARLINK-30770          
1 58132U 23162Q   26088.15771102  .00008776  00000+0  32783-3 0  9994
2 58132  43.0022  22.5992 0001187 275.0261  85.0455 15.27603577135279
STARLINK-30758          
1 58133U 23162R   26088.16335269  .00002075  00000+0  84916-4 0  9998
2 58133  43.0006  19.2483 0001781 266.9573  93.1075 15.27583374135321
STARLINK-30761          
1 58134U 23162S   26088.16156646  .00001034  00000+0  47057-4 0  9998
2 58134  42.9999  22.6295 0001272 276.0491  84.0216 15.27599688135282
STARLINK-30772          
1 58135U 23162T   26088.21154273 -.00001145  00000+0 -32109-4 0  9996
2 58135  43.0040  22.1588 0001455 259.6635 100.4053 15.27574169135292
STARLINK-30776          
1 58136U 23162U   26088.09424769  .00045582  00000+0  15639-2 0  9991
2 58136  42.9970  22.9600 0004346 222.0157 138.0362 15.29437964135272
STARLINK-30782          
1 58137U 23162V   26088.21532247  .00002033  00000+0  85409-4 0  9995
2 58137  43.0031  22.1860 0000671 255.2247 104.8530 15.26749290135293
STARLINK-30769          
1 58138U 23162W   26088.19484054  .00001810  00000+0  75306-4 0  9992
2 58138  43.0048  22.0278 0001674 264.4225  95.6435 15.27577069135291
STARLINK-30775          
1 58139U 23162X   26088.18404941  .00005074  00000+0  19856-3 0  9992
2 58139  43.0011  21.9437 0000763 276.7588  83.3176 15.26762506135290
STARLINK-30780          
1 58140U 23162Y   26087.54739495 -.00004379  00000+0 -14977-3 0  9996
2 58140  43.0029  25.7698 0000743 278.3371  81.7396 15.27567886135198
STARLINK-30802          
1 58150U 23166A   26087.81899273  .00000595  00000+0  32211-4 0  9998
2 58150  53.1592 131.0592 0000979  91.5344 268.5769 15.30194443136106
STARLINK-30834          
1 58151U 23166B   26088.08444039  .00020694  00000+0  70864-3 0  9992
2 58151  53.1585 129.6664 0001446  96.3172 263.7994 15.30210101136145
