[{"OBJECT_NAME":"STARLINK-30767","OBJECT_ID":"2023-162J","EPOCH":"2026-03-29T04:00:47.424384","MEAN_MOTION":15.27591142,"ECCENTRICITY":0.0001972,"INCLINATION":43.0014,"RA_OF_ASC_NODE":19.279,"ARG_OF_PERICENTER":265.2104,"MEAN_ANOMALY":94.8523,"EPHEMERIS_TYPE":0,"CLASSIFICATION_TYPE":"U","NORAD_CAT_ID":58126,"ELEMENT_SET_NO":999,"REV_AT_EPOCH":13532,"BSTAR":-5.0054e-5,"MEAN_MOTION_DOT":-1.64e-5,"MEAN_MOTION_DDOT":0},{"OBJECT_NAME":"STARLINK-30790","OBJECT_ID":"2023-162K","EPOCH":"2026-03-29T03:31:43.728960","MEAN_MOTION":15.14837473,"ECCENTRICITY":0.0012174,"INCLINATION":42.9998,"RA_OF_ASC_NODE":20.0154,"ARG_OF_PERICENTER":174.8361,"MEAN_ANOMALY":185.2613,"EPHEMERIS_TYPE":0,"CLASSIFICATION_TYPE":"U","NORAD_CAT_ID":58127,"ELEMENT_SET_NO":999,"REV_AT_EPOCH":13531,"BSTAR":0.0036006,"MEAN_MOTION_DOT":0.00068673,"MEAN_MOTION_DDOT":0},{"OBJECT_NAME":"STARLINK-30787","OBJECT_ID":"2023-162L","EPOCH":"2026-03-29T02:28:28.290144","MEAN_MOTION":15.27585119,"ECCENTRICITY":0.0001601,"INCLINATION":43.002,"RA_OF_ASC_NODE":19.6569,"ARG_OF_PERICENTER":264.7006,"MEAN_ANOMALY":95.3663,"EPHEMERIS_TYPE":0,"CLASSIFICATION_TYPE":"U","NORAD_CAT_ID":58128,"ELEMENT_SET_NO":999,"REV_AT_EPOCH":13531,"BSTAR":0.00010263,"MEAN_MOTION_DOT":2.563e-5,"MEAN_MOTION_DDOT":0},{"OBJECT_NAME":"STARLINK-30756","OBJECT_ID":"2023-162M","EPOCH":"2026-03-29T04:00:01.999584","MEAN_MOTION":15.27551265,"ECCENTRICITY":0.0001919,"INCLINATION":43.0039,"RA_OF_ASC_NODE":22.4762,"ARG_OF_PERICENTER":275.6281,"MEAN_ANOMALY":169.2038,"EPHEMERIS_TYPE":0,"CLASSIFICATION_TYPE":"U","NORAD_CAT_ID":58129,"ELEMENT_SET_NO":999,"REV_AT_EPOCH":581,"BSTAR":0.0021035,"MEAN_MOTION_DOT":0.00058029,"MEAN_MOTION_DDOT":0},{"OBJECT_NAME":"STARLINK-30783","OBJECT_ID":"2023-162N","EPOCH":"2026-03-29T03:53:22.486848","MEAN_MOTION":15.27589522,"ECCENTRICITY":9.53e-5,"INCLINATION":43.0024,"RA_OF_ASC_NODE":19.237,"ARG_OF_PERICENTER":283.3279,"MEAN_ANOMALY":76.7466,"EPHEMERIS_TYPE":0,"CLASSIFICATION_TYPE":"U","NORAD_CAT_ID":58130,"ELEMENT_SET_NO":999,"REV_AT_EPOCH":13532,"BSTAR":0.0001433,"MEAN_MOTION_DOT":3.684e-5,"MEAN_MOTION_DDOT":0},{"OBJECT_NAME":"STARLINK-30757","OBJECT_ID":"2023-162P","EPOCH":"2026-03-29T03:47:49.197120","MEAN_MOTION":15.27588504,"ECCENTRICITY":9.96e-5,"INCLINATION":43.0066,"RA_OF_ASC_NODE":19.207,"ARG_OF_PERICENTER":281.345,"MEAN_ANOMALY":78.729,"EPHEMERIS_TYPE":0,"CLASSIFICATION_TYPE":"U","NORAD_CAT_ID":58131,"ELEMENT_SET_NO":999,"REV_AT_EPOCH":13532,"BSTAR":0.00012206,"MEAN_MOTION_DOT":3.099e-5,"MEAN_MOTION_DDOT":0},{"OBJECT_NAME":"STARLINK-30770","OBJECT_ID":"2023-162Q","EPOCH":"2026-03-29T03:47:06.232128","MEAN_MOTION":15.27603577,"ECCENTRICITY":0.0001187,"INCLINATION":43.0022,"RA_OF_ASC_NODE":22.5992,"ARG_OF_PERICENTER":275.0261,"MEAN_ANOMALY":85.0455,"EPHEMERIS_TYPE":0,"CLASSIFICATION_TYPE":"U","NORAD_CAT_ID":58132,"ELEMENT_SET_NO":999,"REV_AT_EPOCH":13527,"BSTAR":0.00032783,"MEAN_MOTION_DOT":8.776e-5,"MEAN_MOTION_DDOT":0},{"OBJECT_NAME":"STARLINK-30758","OBJECT_ID":"2023-162R","EPOCH":"2026-03-29T03:55:13.672416","MEAN_MOTION":15.27583374,"ECCENTRICITY":0.0001781,"INCLINATION":43.0006,"RA_OF_ASC_NODE":19.2483,"ARG_OF_PERICENTER":266.9573,"MEAN_ANOMALY":93.1075,"EPHEMERIS_TYPE":0,"CLASSIFICATION_TYPE":"U","NORAD_CAT_ID":58133,"ELEMENT_SET_NO":999,"REV_AT_EPOCH":13532,"BSTAR":8.4916e-5,"MEAN_MOTION_DOT":2.075e-5,"MEAN_MOTION_DDOT":0},{"OBJECT_NAME":"STARLINK-30761","OBJECT_ID":"2023-162S","EPOCH":"2026-03-29T03:52:39.342144","MEAN_MOTION":15.27599688,"ECCENTRICITY":0.0001272,"INCLINATION":42.9999,"RA_OF_ASC_NODE":22.6295,"ARG_OF_PERICENTER":276.0491,"MEAN_ANOMALY":84.0216,"EPHEMERIS_TYPE":0,"CLASSIFICATION_TYPE":"U","NORAD_CAT_ID":58134,"ELEMENT_SET_NO":999,"REV_AT_EPOCH":13528,"BSTAR":4.7057e-5,"MEAN_MOTION_DOT":1.034e-5,"MEAN_MOTION_DDOT":0},{"OBJECT_NAME":"STARLINK-30772","OBJECT_ID":"2023-162T","EPOCH":"2026-03-29T05:04:37.291872","MEAN_MOTION":15.27574169,"ECCENTRICITY":0.0001455,"INCLINATION":43.004,"RA_OF_ASC_NODE":22.1588,"ARG_OF_PERICENTER":259.6635,"MEAN_ANOMALY":100.4053,"EPHEMERIS_TYPE":0,"CLASSIFICATION_TYPE":"U","NORAD_CAT_ID":58135,"ELEMENT_SET_NO":999,"REV_AT_EPOCH":13529,"BSTAR":-3.2109e-5,"MEAN_MOTION_DOT":-1.145e-5,"MEAN_MOTION_DDOT":0},{"OBJECT_NAME":"STARLINK-30776","OBJECT_ID":"2023-162U","EPOCH":"2026-03-29T02:15:43.000416","MEAN_MOTION":15.29437964,"ECCENTRICITY":0.0004346,"INCLINATION":42.997,"RA_OF_ASC_NODE":22.96,"ARG_OF_PERICENTER":222.0157,"MEAN_ANOMALY":138.0362,"EPHEMERIS_TYPE":0,"CLASSIFICATION_TYPE":"U","NORAD_CAT_ID":58136,"ELEMENT_SET_NO":999,"REV_AT_EPOCH":13527,"BSTAR":0.0015639,"MEAN_MOTION_DOT":0.00045582,"MEAN_MOTION_DDOT":0},{"OBJECT_NAME":"STARLINK-30782","OBJECT_ID":"2023-162V","EPOCH":"2026-03-29T05:10:03.861408","MEAN_MOTION":15.2674929,"ECCENTRICITY":6.71e-5,"INCLINATION":43.0031,"RA_OF_ASC_NODE":22.186,"ARG_OF_PERICENTER":255.2247,"MEAN_ANOMALY":104.853,"EPHEMERIS_TYPE":0,"CLASSIFICATION_TYPE":"U","NORAD_CAT_ID":58137,"ELEMENT_SET_NO":999,"REV_AT_EPOCH":13529,"BSTAR":8.5409e-5,"MEAN_MOTION_DOT":2.033e-5,"MEAN_MOTION_DDOT":0},{"OBJECT_NAME":"STARLINK-30769","OBJECT_ID":"2023-162W","EPOCH":"2026-03-29T04:40:34.222656","MEAN_MOTION":15.27577069,"ECCENTRICITY":0.0001674,"INCLINATION":43.0048,"RA_OF_ASC_NODE":22.0278,"ARG_OF_PERICENTER":264.4225,"MEAN_ANOMALY":95.6435,"EPHEMERIS_TYPE":0,"CLASSIFICATION_TYPE":"U","NORAD_CAT_ID":58138,"ELEMENT_SET_NO":999,"REV_AT_EPOCH":13529,"BSTAR":7.5306e-5,"MEAN_MOTION_DOT":1.81e-5,"MEAN_MOTION_DDOT":0},{"OBJECT_NAME":"STARLINK-30775","OBJECT_ID":"2023-162X","EPOCH":"2026-03-29T04:25:01.869024","MEAN_MOTION":15.26762506,"ECCENTRICITY":7.63e-5,"INCLINATION":43.0011,"RA_OF_ASC_NODE":21.9437,"ARG_OF_PERICENTER":276.7588,"MEAN_ANOMALY":83.3176,"EPHEMERIS_TYPE":0,"CLASSIFICATION_TYPE":"U","NORAD_CAT_ID":58139,"ELEMENT_SET_NO":999,"REV_AT_EPOCH":13529,"BSTAR":0.00019856,"MEAN_MOTION_DOT":5.074e-5,"MEAN_MOTION_DDOT":0},{"OBJECT_NAME":"STARLINK-30780","OBJECT_ID":"2023-162Y","EPOCH":"2026-03-28T13:08:14.923680","MEAN_MOTION":15.27567886,"ECCENTRICITY":7.43e-5,"INCLINATION":43.0029,"RA_OF_ASC_NODE":25.7698,"ARG_OF_PERICENTER":278.3371,"MEAN_ANOMALY":81.7396,"EPHEMERIS_TYPE":0,"CLASSIFICATION_TYPE":"U","NORAD_CAT_ID":58140,"ELEMENT_SET_NO":999,"REV_AT_EPOCH":13519,"BSTAR":-0.00014977,"MEAN_MOTION_DOT":-4.379e-5,"MEAN_MOTION_DDOT":0},{"OBJECT_NAME":"STARLINK-30802","OBJECT_ID":"2023-166A","EPOCH":"2026-03-28T19:39:20.971872","MEAN_MOTION":15.30194443,"ECCENTRICITY":9.793e-5,"INCLINATION":53.1592,"RA_OF_ASC_NODE":131.0592,"ARG_OF_PERICENTER":91.5344,"MEAN_ANOMALY":268.5769,"EPHEMERIS_TYPE":0,"CLASSIFICATION_TYPE":"U","NORAD_CAT_ID":58150,"ELEMENT_SET_NO":999,"REV_AT_EPOCH":13610,"BSTAR":3.2210779e-5,"MEAN_MOTION_DOT":5.95e-6,"MEAN_MOTION_DDOT":0},{"OBJECT_NAME":"STARLINK-30834","OBJECT_ID":"2023-166B","EPOCH":"2026-03-29T02:01:35.649696","MEAN_MOTION":15.30210101,"ECCENTRICITY":0.0001446,"INCLINATION":53.1585,"RA_OF_ASC_NODE":129.6664,"ARG_OF_PERICENTER":96.3172,"MEAN_ANOMALY":263.7994,"EPHEMERIS_TYPE":0,"CLASSIFICATION_TYPE":"U","NORAD_CAT_ID":58151,"ELEMENT_SET_NO":999,"REV_AT_EPOCH":13614,"BSTAR":0.00070864,"MEAN_MOTION_DOT":0.00020694,"MEAN_MOTION_DDOT":0}]
